BEIDOU 3 (C01)          
1 36287U 10001A   22219.54782315 -.00000282  00000+0  00000+0 0  9990
2 36287   1.9679  49.6690 0003556  38.9366 205.0385  1.00267824 46023
BEIDOU 5 (C06)          
1 36828U 10036A   22219.59609418 -.00000107  00000+0  00000+0 0  9992
2 36828  54.2009 175.7604 0030658 190.4614 271.8684  1.00284307 44094
BEIDOU 6 (C04)          
1 37210U 10057A   22219.22271424 -.00000110  00000+0  00000+0 0  9997
2 37210   0.9387  52.8361 0005343 130.0872  12.9437  1.00274055 43145
BEIDOU 7 (C07)          
1 37256U 10068A   22219.03235034 -.00000185  00000+0  00000+0 0  9997
2 37256  50.1221 289.0434 0023566 199.9223 304.9063  1.00291501 42654
BEIDOU 8 (C08)          
1 37384U 11013A   22219.30217987 -.00000164  00000+0  00000+0 0  9994
2 37384  60.3660  53.7525 0022815 177.3222 299.8277  1.00293944 41536
BEIDOU 9 (C09)          
1 37763U 11038A   22218.87410457 -.00000051  00000+0  00000+0 0  9995
2 37763  54.4842 178.2628 0098958 228.3794 319.0876  1.00270488 40506
BEIDOU 10 (C10)         
1 37948U 11073A   22219.03384918 -.00000141  00000+0  00000+0 0  9990
2 37948  50.2374 288.6875 0085404 218.4179 276.2696  1.00283093 39265
BEIDOU 11 (C05)         
1 38091U 12008A   22218.83868887  .00000059  00000+0  00000+0 0  9995
2 38091   1.6713  68.8135 0013675 342.7751 264.3400  1.00272586 38330
BEIDOU 12 (C11)         
1 38250U 12018A   22218.88016986 -.00000083  00000+0  00000+0 0  9991
2 38250  56.6804 351.8949 0021143 249.6398 289.9203  1.86234466 70022
BEIDOU 13 (C12)         
1 38251U 12018B   22218.54447278 -.00000082  00000+0  00000+0 0  9996
2 38251  56.5975 351.2272 0011935 249.2770 109.4018  1.86234257 70019
BEIDOU 15 (C14)         
1 38775U 12050B   22218.53388019 -.00000028  00000+0  00000+0 0  9999
2 38775  55.4279 109.9998 0013844 328.6479 219.0020  1.86231440 67396
BEIDOU 16 (C02)         
1 38953U 12059A   22219.46491926 -.00000177  00000+0  00000+0 0  9996
2 38953   2.1108  84.1815 0010179 307.1166 176.1210  1.00272451 35919
BEIDOU 17 (C31)         
1 40549U 15019A   22219.17344973 -.00000183  00000+0  00000+0 0  9993
2 40549  51.7999 312.1694 0037853 195.0054 325.8535  1.00286748 26948
BEIDOU 18 (C57)         
1 40748U 15037A   22218.62260091 -.00000083  00000+0  00000+0 0  9990
2 40748  55.8489 350.0609 0003141  61.5701 258.8513  1.86233565 47840
BEIDOU 19 (C58)         
1 40749U 15037B   22218.40696550 -.00000083  00000+0  00000+0 0  9990
2 40749  55.8519 350.0580 0002342 349.0493 321.1028  1.86232270 47833
BEIDOU 20 (C18)         
1 40938U 15053A   22218.83744779 -.00000106  00000+0  00000+0 0  9998
2 40938  51.4216 275.2955 0046008 198.9970 238.7777  1.00281186 25219
BEIDOU IGSO-6 (C13)     
1 41434U 16021A   22219.04504708 -.00000144  00000+0  00000+0 0  9998
2 41434  58.1728  52.3093 0044041 215.5872 160.0243  1.00273357 23340
BEIDOU-2 G7 (C03)       
1 41586U 16037A   22219.16258400 -.00000352  00000+0  00000+0 0  9992
2 41586   1.4818  66.8326 0008238   2.9580  54.7899  1.00263895 22644
BEIDOU-3 M1 (C19)       
1 43001U 17069A   22218.29587560 -.00000026  00000+0  00000+0 0  9995
2 43001  55.5805 110.0151 0009907 297.9934 246.4023  1.86231841 32320
BEIDOU-3 M2 (C20)       
1 43002U 17069B   22219.29874126 -.00000030  00000+0  00000+0 0  9999
2 43002  55.5802 110.0168 0008329 321.5495 218.1712  1.86231406 32338
BEIDOU-3 M3 (C27)       
1 43107U 18003A   22218.82863771 -.00000085  00000+0  00000+0 0  9996
2 43107  55.3002 350.9487 0005068  69.0298 321.7121  1.86232623 31094
BEIDOU-3 M4 (C28)       
1 43108U 18003B   22218.99074898 -.00000086  00000+0  00000+0 0  9990
2 43108  55.2926 350.9319 0002348 229.6827 313.3528  1.86231015 31095
BEIDOU-3 M5 (C21)       
1 43207U 18018A   22217.55172777 -.00000022  00000+0  00000+0 0  9992
2 43207  55.5391 110.1524 0006207 347.4365  12.5994  1.86231738 30458
BEIDOU-3 M6 (C22)       
1 43208U 18018B   22218.15534775 -.00000025  00000+0  00000+0 0  9993
2 43208  55.5389 110.1370 0007871 311.5156  48.4699  1.86231637 30462
BEIDOU-3 M7 (C29)       
1 43245U 18029A   22219.37545417 -.00000088  00000+0  00000+0 0  9995
2 43245  55.2110 348.6958 0001043 127.4735 180.3453  1.86232852 29635
BEIDOU-3 M8 (C30)       
1 43246U 18029B   22218.85049554 -.00000086  00000+0  10000-3 0  9992
2 43246  55.2091 348.7427 0003431  14.0220 348.4068  1.86233006 29629
BEIDOU IGSO-7 (C16)     
1 43539U 18057A   22218.82688199 -.00000104  00000+0  00000+0 0  9995
2 43539  55.0922 175.2854 0052874 229.2317 320.3702  1.00295379 15013
BEIDOU-3 M9 (C23)       
1 43581U 18062A   22218.12415293  .00000109  00000+0  00000+0 0  9998
2 43581  54.2636 230.3841 0005894 270.8374 175.7610  1.86231968 27355
BEIDOU-3 M10 (C24)      
1 43582U 18062B   22218.93476637  .00000110  00000+0  00000+0 0  9999
2 43582  54.2639 230.3455 0004772 335.7175  26.1898  1.86232408 27373
BEIDOU-3 M11 (C25)      
1 43602U 18067A   22219.47718045  .00000109  00000+0  00000+0 0  9997
2 43602  54.3460 228.9464 0006554   0.0971  46.7968  1.86231696 26876
BEIDOU-3 M12 (C26)      
1 43603U 18067B   22219.00095141  .00000110  00000+0  00000+0 0  9994
2 43603  54.3432 228.9293 0004019 340.7085  17.2601  1.86231674 26873
BEIDOU-3 M13 (C32)      
1 43622U 18072A   22218.76664721 -.00000029  00000+0  00000+0 0  9999
2 43622  55.5061 109.6652 0006363 296.5513 293.4750  1.86231958 26381
BEIDOU-3 M14 (C33)      
1 43623U 18072B   22217.38805078 -.00000021  00000+0  00000+0 0  9991
2 43623  55.5081 109.7028 0004874 325.0089 150.9698  1.86231944 26364
BEIDOU-3 M15 (C34)      
1 43647U 18078A   22218.45698948 -.00000084  00000+0  10000-3 0  9992
2 43647  55.1064 348.8826 0005639  14.7053 353.5452  1.86232858 25893
BEIDOU-3 M16 (C35)      
1 43648U 18078B   22218.57052337 -.00000085  00000+0  00000+0 0  9998
2 43648  55.1029 348.8830 0004115  33.7781 318.2886  1.86232391 25900
BEIDOU-3 G1 (C59)       
1 43683U 18085A   22219.55828525 -.00000278  00000+0  00000+0 0  9998
2 43683   0.9417 157.8930 0004383   3.1346 135.9795  1.00275899 13919
BEIDOU-3 M17 (C36)      
1 43706U 18093A   22219.26912051  .00000109  00000+0  00000+0 0  9991
2 43706  54.3464 230.2332 0011419 273.6974  85.4296  1.86231850 25260
BEIDOU-3 M18 (C37)      
1 43707U 18093B   22218.60001799  .00000110  00000+0  00000+0 0  9999
2 43707  54.3463 230.2469 0009205 293.9992  67.7842  1.86232283 25267
BEIDOU-3 IGSO-1 (C38)   
1 44204U 19023A   22218.45604978 -.00000204  00000+0  00000+0 0  9992
2 44204  56.6278  52.4372 0022082 188.7018 355.7347  1.00295049 12210
BEIDOU-2 G8             
1 44231U 19027A   22219.18994272 -.00000247  00000+0  00000+0 0  9993
2 44231   0.9788  78.0620 0005452 109.9636 340.5381  1.00268679 11938
BEIDOU-3 IGSO-2 (C39)   
1 44337U 19035A   22218.88106700 -.00000115  00000+0  00000+0 0  9990
2 44337  55.1287 171.2742 0025908 194.4385  25.2844  1.00289490 11553
BEIDOU-3 M23 (C45)      
1 44542U 19061A   22219.20639205  .00000110  00000+0  00000+0 0  9999
2 44542  54.5730 230.3872 0008581 324.4561  35.5312  1.86231331 19532
BEIDOU-3 M24 (C46)      
1 44543U 19061B   22218.80056508  .00000111  00000+0  00000+0 0  9995
2 44543  54.5703 230.3707 0006203 306.7239  52.5517  1.86231790 19517
BEIDOU-3 IGSO-3         
1 44709U 19073A   22218.85626571 -.00000184  00000+0  10000-3 0  9996
2 44709  57.1840 295.8631 0027420 178.5758 267.4136  1.00293607 10302
BEIDOU-3 M21            
1 44793U 19078A   22218.52309500 -.00000085  00000+0  10000-3 0  9998
2 44793  54.9553 348.8946 0005881  23.4838 342.8994  1.86232375 18388
BEIDOU-3 M22            
1 44794U 19078B   22219.15682470 -.00000087  00000+0  00000+0 0  9996
2 44794  54.9286 348.8634 0003642  23.6604 319.3652  1.86232901 18387
BEIDOU-3 M19            
1 44864U 19090A   22219.16716206 -.00000030  00000+0  00000+0 0  9992
2 44864  55.4414 109.8595 0016569 273.8971 270.4872  1.86232073 17978
BEIDOU-3 M20            
1 44865U 19090B   22218.48379228 -.00000027  00000+0  00000+0 0  9992
2 44865  55.4439 109.9148 0014928 288.3947 247.6787  1.86232015 17935
BEIDOU-3 G2             
1 45344U 20017A   22218.81835396 -.00000135  00000+0  00000+0 0  9996
2 45344   2.0371 354.5097 0005203 129.5482 205.9305  1.00270876  9115
BEIDOU-3 G3             
1 45807U 20040A   22218.82445796 -.00000349  00000+0  00000+0 0  9995
2 45807   1.3311 304.6163 0006583 332.9923  85.0665  1.00274782  7931
